{
    "links": {
        "self": "http://www.neowsapp.com/rest/v1/neo/3753457?api_key=iIulBulltgU6a56xZRHN4H3l9WmuAYTsLGpBGhQ2"
    },
    "id": "3753457",
    "neo_reference_id": "3753457",
    "name": "(2016 JK34)",
    "designation": "2016 JK34",
    "nasa_jpl_url": "http://ssd.jpl.nasa.gov/sbdb.cgi?sstr=3753457",
    "absolute_magnitude_h": 23.5,
    "estimated_diameter": {
        "kilometers": {
            "estimated_diameter_min": 0.0530340723,
            "estimated_diameter_max": 0.1185877909
        },
        "meters": {
            "estimated_diameter_min": 53.0340723319,
            "estimated_diameter_max": 118.5877908577
        },
        "miles": {
            "estimated_diameter_min": 0.0329538346,
            "estimated_diameter_max": 0.0736870142
        },
        "feet": {
            "estimated_diameter_min": 173.9963058693,
            "estimated_diameter_max": 389.0675677576
        }
    },
    "is_potentially_hazardous_asteroid": false,
    "close_approach_data": [
        {
            "close_approach_date": "2016-06-03",
            "close_approach_date_full": "2016-Jun-03 13:13",
            "epoch_date_close_approach": 1464959580000,
            "relative_velocity": {
                "kilometers_per_second": "14.2804031453",
                "kilometers_per_hour": "51409.4513230714",
                "miles_per_hour": "31943.8337957162"
            },
            "miss_distance": {
                "astronomical": "0.0646366581",
                "lunar": "25.1436600009",
                "kilometers": "9669506.375678247",
                "miles": "6008352.6508319286"
            },
            "orbiting_body": "Earth"
        }
    ],
    "orbital_data": {
        "orbit_id": "16",
        "orbit_determination_date": "2017-04-06 08:25:52",
        "first_observation_date": "2016-05-15",
        "last_observation_date": "2016-06-04",
        "data_arc_in_days": 20,
        "observations_used": 48,
        "orbit_uncertainty": "7",
        "minimum_orbit_intersection": ".0311353",
        "jupiter_tisserand_invariant": "3.388",
        "epoch_osculation": "2459000.5",
        "eccentricity": ".5930570720845805",
        "semi_major_axis": "2.21700616540582",
        "inclination": "7.844104265226999",
        "ascending_node_longitude": "91.33846649254085",
        "orbital_period": "1205.726422378702",
        "perihelion_distance": ".9021949801567812",
        "perihelion_argument": "211.0768820910978",
        "aphelion_distance": "3.531817350654858",
        "perihelion_time": "2458783.586557955324",
        "mean_anomaly": "64.7649729546665",
        "mean_motion": ".2985751936079981",
        "equinox": "J2000",
        "orbit_class": {
            "orbit_class_type": "APO",
            "orbit_class_description": "Near-Earth asteroid orbits which cross the Earth’s orbit similar to that of 1862 Apollo",
            "orbit_class_range": "a (semi-major axis) > 1.0 AU; q (perihelion) < 1.017 AU"
        }
    },
    "is_sentry_object": false
}